STARLINK-31736          
1 59547U 24074P   26068.09466869 -.00003520  00000+0 -11846-3 0  9991
2 59547  43.0078 339.9225 0001472 268.2918  91.7765 15.27578592106000
FLOCK 4G-15             
1 62678U 25009BX  26068.71779869  .00012647  00000+0  47575-3 0  9991
2 62678  97.4054 151.1927 0003699 316.8208  43.2740 15.27266411121358
